1 53803U 22111AG  22283.58334491 -.00037284  00000-0 -26127-3 0  9997
2 53803  53.2153 120.9676 0001174 117.0242 295.5383 15.73301102  1303